{
    "links": {
        "self": "http://www.neowsapp.com/rest/v1/neo/3727663?api_key=iIulBulltgU6a56xZRHN4H3l9WmuAYTsLGpBGhQ2"
    },
    "id": "3727663",
    "neo_reference_id": "3727663",
    "name": "(2015 RY83)",
    "designation": "2015 RY83",
    "nasa_jpl_url": "http://ssd.jpl.nasa.gov/sbdb.cgi?sstr=3727663",
    "absolute_magnitude_h": 24.2,
    "estimated_diameter": {
        "kilometers": {
            "estimated_diameter_min": 0.0384197891,
            "estimated_diameter_max": 0.0859092601
        },
        "meters": {
            "estimated_diameter_min": 38.4197891064,
            "estimated_diameter_max": 85.9092601232
        },
        "miles": {
            "estimated_diameter_min": 0.0238729428,
            "estimated_diameter_max": 0.0533815229
        },
        "feet": {
            "estimated_diameter_min": 126.0491808919,
            "estimated_diameter_max": 281.8545369825
        }
    },
    "is_potentially_hazardous_asteroid": false,
    "close_approach_data": [
        {
            "close_approach_date": "2015-09-07",
            "close_approach_date_full": "2015-Sep-07 16:55",
            "epoch_date_close_approach": 1441644900000,
            "relative_velocity": {
                "kilometers_per_second": "6.9807843196",
                "kilometers_per_hour": "25130.823550526",
                "miles_per_hour": "15615.3164444921"
            },
            "miss_distance": {
                "astronomical": "0.0764955043",
                "lunar": "29.7567511727",
                "kilometers": "11443564.507855841",
                "miles": "7110701.2575829658"
            },
            "orbiting_body": "Earth"
        }
    ],
    "orbital_data": {
        "orbit_id": "10",
        "orbit_determination_date": "2017-04-06 08:31:54",
        "first_observation_date": "2015-09-15",
        "last_observation_date": "2015-10-09",
        "data_arc_in_days": 24,
        "observations_used": 24,
        "orbit_uncertainty": "7",
        "minimum_orbit_intersection": ".080622",
        "jupiter_tisserand_invariant": "3.519",
        "epoch_osculation": "2459000.5",
        "eccentricity": ".4961794771261954",
        "semi_major_axis": "2.158416055282455",
        "inclination": "7.776899742905199",
        "ascending_node_longitude": "163.2960398092391",
        "orbital_period": "1158.246965592966",
        "perihelion_distance": "1.087454305551621",
        "perihelion_argument": "183.4606003139615",
        "aphelion_distance": "3.229377805013289",
        "perihelion_time": "2458433.816606588098",
        "mean_anomaly": "176.133439316928",
        "mean_motion": ".3108145418845951",
        "equinox": "J2000",
        "orbit_class": {
            "orbit_class_type": "AMO",
            "orbit_class_description": "Near-Earth asteroid orbits similar to that of 1221 Amor",
            "orbit_class_range": "1.017 AU < q (perihelion) < 1.3 AU"
        }
    },
    "is_sentry_object": false
}